COMMENT,ORIGINATOR,NORAD_CAT_ID,OBJECT_NAME,OBJECT_TYPE,CLASSIFICATION_TYPE,INTLDES,EPOCH,EPOCH_MICROSECONDS,MEAN_MOTION,ECCENTRICITY,INCLINATION,RA_OF_ASC_NODE,ARG_OF_PERICENTER,MEAN_ANOMALY,EPHEMERIS_TYPE,ELEMENT_SET_NO,REV_AT_EPOCH,BSTAR,MEAN_MOTION_DOT,MEAN_MOTION_DDOT,FILE,TLE_LINE0,TLE_LINE1,TLE_LINE2,OBJECT_ID,OBJECT_NUMBER,SEMIMAJOR_AXIS,PERIOD,APOGEE,PERIGEE,DECAYED,date
GENERATED VIA SPACETRACK.ORG API,18 SPCS,48895,SPACEBEE-108,PAYLOAD,U,21059S,2023/4/21 22:41,558272,15.27968785,0.0007616,97.5893,247.7696,117.2038,242.9978,0,999,10079,0.0013449,0.00036797,0,3891903,0 SPACEBEE-108,1 48895U 21059S   23111.94571248  .00036797  00000-0  13449-2 0  9994,2 48895  97.5893 247.7696 0007616 117.2038 242.9978 15.27968785100796,2021-059S,48895,6860.022,94.243,487.112,476.663,0,
GENERATED VIA SPACETRACK.ORG API,18 SPCS,48895,SPACEBEE-108,PAYLOAD,U,21059S,2023/4/21 22:41,558272,15.27968785,0.0007616,97.5893,247.7696,117.2038,242.9978,0,999,10079,0.0013449,0.00036797,0,3892071,0 SPACEBEE-108,1 48895U 21059S   23111.94571248  .00036797  00000-0  13449-2 0  9994,2 48895  97.5893 247.7696 0007616 117.2038 242.9978 15.27968785100796,2021-059S,48895,6860.022,94.243,487.112,476.663,0,
GENERATED VIA SPACETRACK.ORG API,18 SPCS,48895,SPACEBEE-108,PAYLOAD,U,21059S,2023/4/23 2:59,80992,15.28053266,0.0007571,97.5895,248.9696,113.4223,246.7813,0,999,10097,0.0012354,0.00033868,0,3892344,0 SPACEBEE-108,1 48895U 21059S   23113.12446853  .00033868  00000-0  12354-2 0  9999,2 48895  97.5895 248.9696 0007571 113.4223 246.7813 15.28053266100975,2021-059S,48895,6859.769,94.238,486.828,476.441,0,
GENERATED VIA SPACETRACK.ORG API,18 SPCS,48895,SPACEBEE-108,PAYLOAD,U,21059S,2023/4/23 7:42,634880,15.28066589,0.0007559,97.5894,249.1696,112.9421,247.2617,0,999,10100,0.0011968,0.00032816,0,3892688,0 SPACEBEE-108,1 48895U 21059S   23113.32092170  .00032816  00000-0  11968-2 0  9992,2 48895  97.5894 249.1696 0007559 112.9421 247.2617 15.28066589101002,2021-059S,48895,6859.729,94.237,486.78,476.409,0,
GENERATED VIA SPACETRACK.ORG API,18 SPCS,48895,SPACEBEE-108,PAYLOAD,U,21059S,2023/4/24 4:07,495936,15.28190972,0.0007588,97.5898,250.0366,109.9657,250.24,0,999,10113,0.0039187,0.00109134,0,3892887,0 SPACEBEE-108,1 48895U 21059S   23114.17219324  .00109134  00000-0  39187-2 0  9999,2 48895  97.5898 250.0366 0007588 109.9657 250.2400 15.28190972101132,2021-059S,48895,6859.357,94.229,486.427,476.017,0,
GENERATED VIA SPACETRACK.ORG API,18 SPCS,48895,SPACEBEE-108,PAYLOAD,U,21059S,2023/4/25 8:25,128128,15.28264467,0.000754,97.5897,251.237,106.3525,253.8544,0,999,10131,0.0011908,0.00032849,0,3894092,0 SPACEBEE-108,1 48895U 21059S   23115.35078852  .00032849  00000-0  11908-2 0  9998,2 48895  97.5897 251.2370 0007540 106.3525 253.8544 15.28264467101311,2021-059S,48895,6859.137,94.225,486.174,475.831,0,
GENERATED VIA SPACETRACK.ORG API,18 SPCS,48895,SPACEBEE-108,PAYLOAD,U,21059S,2023/4/26 14:16,916992,15.28327314,0.000759,97.5894,252.5042,102.4216,257.7872,0,999,10150,0.001023,0.00028246,0,3894260,0 SPACEBEE-108,1 48895U 21059S   23116.59480228  .00028246  00000-0  10230-2 0  9992,2 48895  97.5894 252.5042 0007590 102.4216 257.7872 15.28327314101506,2021-059S,48895,6858.949,94.221,486.02,475.608,0,
GENERATED VIA SPACETRACK.ORG API,18 SPCS,48895,SPACEBEE-108,PAYLOAD,U,21059S,2023/4/27 7:33,538624,15.28371185,0.0007359,97.5899,253.2383,98.404,261.8034,0,999,10161,0.0010835,0.00029967,0,3894751,0 SPACEBEE-108,1 48895U 21059S   23117.31499466  .00029967  00000-0  10835-2 0  9999,2 48895  97.5899 253.2383 0007359  98.4040 261.8034 15.28371185101612,2021-059S,48895,6858.818,94.218,485.73,475.636,0,
GENERATED VIA SPACETRACK.ORG API,18 SPCS,48895,SPACEBEE-108,PAYLOAD,U,21059S,2023/4/27 20:07,556416,15.28409806,0.0007401,97.5899,253.7719,97.0267,263.1814,0,999,10169,0.0012385,0.00034325,0,3894797,0 SPACEBEE-108,1 48895U 21059S   23117.83875644  .00034325  00000-0  12385-2 0  9998,2 48895  97.5899 253.7719 0007401  97.0267 263.1814 15.28409806101695,2021-059S,48895,6858.702,94.216,485.644,475.491,0,
GENERATED VIA SPACETRACK.ORG API,18 SPCS,48895,SPACEBEE-108,PAYLOAD,U,21059S,2023/4/28 8:42,630720,15.28437857,0.0007393,97.5894,254.3058,95.9445,264.2637,0,999,10177,0.0010282,0.00028486,0,3895770,0 SPACEBEE-108,1 48895U 21059S   23118.36250730  .00028486  00000-0  10282-2 0  9995,2 48895  97.5894 254.3058 0007393  95.9445 264.2637 15.28437857101779,2021-059S,48895,6858.619,94.214,485.554,475.413,0,
GENERATED VIA SPACETRACK.ORG API,18 SPCS,48895,SPACEBEE-108,PAYLOAD,U,21059S,2023/4/28 14:59,293760,15.28454368,0.0007354,97.5891,254.5728,95.7147,264.493,0,999,10181,0.0010612,0.00029421,0,3895827,0 SPACEBEE-108,1 48895U 21059S   23118.62437840  .00029421  00000-0  10612-2 0  9990,2 48895  97.5891 254.5728 0007354  95.7147 264.4930 15.28454368101815,2021-059S,48895,6858.569,94.213,485.478,475.39,0,
GENERATED VIA SPACETRACK.ORG API,18 SPCS,48895,SPACEBEE-108,PAYLOAD,U,21059S,2023/4/29 9:50,846912,15.28504248,0.0007308,97.5889,255.3732,93.1939,267.0136,0,999,10193,0.0010839,0.000301,0,3896517,0 SPACEBEE-108,1 48895U 21059S   23119.40997508  .00030100  00000-0  10839-2 0  9996,2 48895  97.5889 255.3732 0007308  93.1939 267.0136 15.28504248101939,2021-059S,48895,6858.42,94.21,485.297,475.273,0,
GENERATED VIA SPACETRACK.ORG API,18 SPCS,48895,SPACEBEE-108,PAYLOAD,U,21059S,2023/4/29 22:24,935232,15.28540757,0.0007273,97.5893,255.9072,91.4316,268.7756,0,999,10201,0.001165,0.00032404,0,3896913,0 SPACEBEE-108,1 48895U 21059S   23119.93369138  .00032404  00000-0  11650-2 0  9997,2 48895  97.5893 255.9072 0007273  91.4316 268.7756 15.28540757102019,2021-059S,48895,6858.311,94.207,485.164,475.188,0,
GENERATED VIA SPACETRACK.ORG API,18 SPCS,48895,SPACEBEE-108,PAYLOAD,U,21059S,2023/4/30 7:50,133280,15.28563907,0.0007242,97.5894,256.3075,89.9976,270.2093,0,999,10207,0.0010841,0.0003016,0,3897442,0 SPACEBEE-108,1 48895U 21059S   23120.32647145  .00030160  00000-0  10841-2 0  9997,2 48895  97.5894 256.3075 0007242  89.9976 270.2093 15.28563907102078,2021-059S,48895,6858.242,94.206,485.073,475.14,0,
